terminal,number_docks,map_label,location,latitude,longitude,zip,city,neighborhood,cped_sector,council_ward,loc_just,coordinates
30000,27,100 Main Street SE,140 Main Street SE,44.984892,-93.256551,55414,Minneapolis,Nicollet Island/East Bank,Minn-East,3,Attraction,"(44.984891999999995, -93.256551000000002)"
30001,15,25th Street & 33rd Ave S,3301 East 25th Street,44.957341,-93.223374,55406,Minneapolis,Seward,Minn-South,2,Attraction,"(44.957341, -93.223373999999993)"
30002,15,Riverside Ave & 23rd Ave S,2381 Riverside Ave. S,44.967115,-93.240149,55454,Minneapolis,Cedar-Riverside,Minn-East,2,Minneapolis,"(44.967115, -93.240149000000002)"
30003,15,Plymouth Ave N & N Oliver Ave,2060 Plymouth Avenue North,44.991412,-93.306269,55411,Minneapolis,Willard-Hay,Minn-North,5,Equity,"(44.991411999999997, -93.306269)"
30004,23,11th Street & Hennepin,1060 Hennepin Ave.,44.97534,-93.27869,55403,Minneapolis,Downtown West,Minn-Downtown,7,Minneapolis,"(44.975340000000003, -93.278689999999997)"
30005,15,Hennepin & Central Avenue NE,422 East Hennepin Ave.,44.98889,-93.25392,55414,Minneapolis,Nicollet Island/East Bank,Minn-East,3,Minneapolis,"(44.988890000000005, -93.253919999999994)"
30006,19,YWCA Downtown,1190 Nicollett Mall,44.972217,-93.276435,55403,Minneapolis,Downtown West,Minn-Downtown,7,Minneapolis,"(44.972217000000001, -93.276434999999992)"
30007,19,9th Street & 4th Ave,380 South 9th Street,44.97265,-93.26872,55404,Minneapolis,Downtown West,Minn-Downtown,7,Minneapolis,"(44.972650000000002, -93.268720000000002)"
30008,19,Midtown Exchange,2982 10th Ave S,44.94859,-93.2602,55407,Minneapolis,Midtown Phillips,Minn-South,9,Minneapolis,"(44.948590000000003, -93.260199999999998)"
30009,19,4th Street & 13th Ave SE,1280 4th Street SE,44.98102,-93.23746,55414,Minneapolis,Marcy-Holmes,Minn-East,3,Minneapolis,"(44.981020000000001, -93.237459999999999)"
30010,15,Hennepin & Laurel Ave,1400 Hennepin Avenue,44.97391,-93.28305,55403,Minneapolis,Loring Park,Minn-Downtown,7,Minneapolis,"(44.973909999999997, -93.283050000000003)"
30011,19,North 2nd Street & 4th Ave N,405 North 2nd Street,44.986087,-93.272459,55401,Minneapolis,North Loop,Minn-Downtown,7,Minneapolis,"(44.986086999999998, -93.272458999999998)"
30012,19,Mpls Convention Center,1400 Marquette Avenue,44.970041,-93.275861,55403,Minneapolis,Loring Park,Minn-Downtown,7,Minneapolis,"(44.970040999999995, -93.275860999999992)"
30013,19,Lyndale Ave S & West 29th Street,2916 Lyndale Avenue,44.9494847,-93.2882273,55408,Minneapolis,Whittier,Minn-Southwest,10,Attraction,"(44.949484699999999, -93.288227299999988)"
30014,15,22nd Ave S & Franklin Ave,2200 Franklin Ave,44.96293,-93.241042,55406,Minneapolis,Seward,Minn-South,2,Equity,"(44.96293, -93.241042000000007)"
30015,20,Washington & Cedar,1500 Washington Avenue S,44.97344,-93.24748,55454,Minneapolis,Cedar-Riverside,Minn-East,2,Attraction,"(44.973440000000004, -93.24748000000001)"
30016,15,Walker Art Center,1750 Hennepin Avenue,44.9671037,-93.2890749,55403,Minneapolis,Lowry Hill,Minn-Southwest,7,Attraction,"(44.967103700000003, -93.289074900000003)"
30017,19,Lyndale Ave S & 22nd Street,2250 Lyndale Ave S,44.960744,-93.28815,55405,Minneapolis,Whittier,Minn-Southwest,10,Minneapolis,"(44.960743999999998, -93.288150000000002)"
30018,17,MCAD,2501 Stevens Avenue S,44.957214,-93.274981,55404,Minneapolis,Whittier,Minn-Southwest,6,Minneapolis,"(44.957214, -93.274981000000011)"
30019,29,Social Sciences,269 19th Ave S,44.971359,-93.243754,55455,Minneapolis,University of MN,Minn-East,2,Minneapolis,"(44.971359, -93.24375400000001)"
30020,19,YWCA Uptown,2850 Hennepin Ave,44.95131,-93.29853,55408,Minneapolis,Whittier,Minn-Southwest,10,Minneapolis,"(44.951309999999999, -93.29853)"
30021,19,2nd Ave N & Washington Ave N,190 Washington Ave. N,44.98383,-93.27099,55401,Minneapolis,North Loop,Minn-downtown,7,Minneapolis,"(44.983829999999998, -93.270989999999998)"
30022,15,26th Street & Lyndale,2601 Lyndale Ave. S,44.95548,-93.28775,55405,Minneapolis,Whittier,Minn-Southwest,10,Minneapolis,"(44.955480000000001, -93.287750000000003)"
30023,15,Chicago & 27th Street,2705 Chicago Ave. S,44.95355,-93.26259,55407,Minneapolis,Midtown Phillips,Minn-South,9,Equity,"(44.95355, -93.262590000000003)"
30024,35,Coffman Union,300 Washington Ave SE,44.973378,-93.234762,55455,Minneapolis,University of MN,Minn-East,2,Minneapolis,"(44.973378000000004, -93.234762000000003)"
30025,25,Williamson Hall,331 Pillsbury Drive SE,44.977406,-93.234911,55455,Minneapolis,University of MN,Minn-East,2,Minneapolis,"(44.977406000000002, -93.234910999999997)"
30026,25,Mayo Memorial Building,400 Delaware Street SE,44.97209,-93.23206,55455,Minneapolis,University of MN,Minn-East,2,Minneapolis,"(44.972090000000001, -93.232060000000004)"
30027,19,4th Street S & 19th Ave,1905 South 4th Street,44.97003,-93.24519,55454,Minneapolis,University of MN,Minn-East,2,Minneapolis,"(44.970030000000001, -93.245190000000008)"
30028,19,Washington & Marquette,100 Washington Ave. S,44.9808736,-93.2669252,55401,Minneapolis,Downtown West,Minn-Downtown,7,Minneapolis,"(44.980873600000002, -93.266925200000003)"
30029,33,Hennepin County Government Center,505 3rd Ave. S,44.976602,-93.266701,55415,Minneapolis,Downtown West,Minn-Downtown,7,Minneapolis,"(44.976602, -93.266700999999998)"
30030,31,South 2nd Street & 3rd Ave S,300 South 2nd Street,44.9809267,-93.2634544,55401,Minneapolis,Downtown West,Minn-Downtown,7,Minneapolis,"(44.980926700000005, -93.263454400000015)"
30031,19,23rd Ave SE & 6th Street SE,600 23rd Ave SE,44.977028,-93.221639,55414,Minneapolis,University of MN,Minn-East,2,Minneapolis,"(44.977028000000004, -93.221638999999996)"
30032,15,4th Street & 17th Ave SE,1690 4th Street SE,44.97913,-93.23189,55455,Minneapolis,University of MN,Minn-East,2,Minneapolis,"(44.979129999999998, -93.231890000000007)"
30033,15,Franklin & 11th Ave,1085 East Franklin Ave.,44.96251,-93.2583,55404,Minneapolis,Ventura Village,Minn-South,6,Equity,"(44.962509999999995, -93.258300000000006)"
30034,23,Oak Street Ramp,399 Oak Street SE,44.97202,-93.22697,55414,Minneapolis,Prospect Park/East River Road,Minn-East,2,Minneapolis,"(44.972020000000001, -93.226969999999994)"
30035,15,Loring Park,1501 Harmon Place,44.9715,-93.284927,55403,Minneapolis,Loring Park,Minn-Downtown,7,Attraction,"(44.971499999999999, -93.284926999999996)"
30036,0,Downtown Library,345 Nicollet Mall,44.980199,-93.269217,55401,Minneapolis,Downtown West,Minn-Downtown,7,Minneapolis,"(44.980198999999999, -93.269216999999998)"
30037,15,Currie Park,600 15th Ave. S,44.969225,-93.251136,55454,Minneapolis,Cedar-Riverside,Minn-East,2,Equity,"(44.969225000000002, -93.251136000000002)"
30038,15,E Franklin Ave & Bloomington Ave S,1530 E Franklin,44.96285,-93.252269,55404,Minneapolis,Ventura Village,Minn-South,6,Equity,"(44.962850000000003, -93.252268999999998)"
30039,11,10th Street & Nicollet Mall,75 S 10th Street,44.973839,-93.274544,55403,Minneapolis,Downtown West,Minn-Downtown,7,Minneapolis,"(44.973838999999998, -93.274543999999992)"
30040,19,11th Street & Marquette,1090 Marquette Ave.,44.97265,-93.27405,55403,Minneapolis,Downtown West,Minn-Downtown,7,Minneapolis,"(44.972650000000002, -93.274050000000003)"
30041,15,Franklin & Portland,600 East Franklin Ave.,44.962846,-93.267526,55404,Minneapolis,Phillips West,Minn-South,6,Equity,"(44.962845999999999, -93.267526000000004)"
30042,23,IDS Center,80 South 8th Street,44.975641,-93.272185,55402,Minneapolis,Downtown West,Minn-Downtown,7,Minneapolis,"(44.975640999999996, -93.272184999999993)"
30043,19,Lake Street & Humboldt,1400 West Lake Street,44.94865,-93.30077,55408,Minneapolis,East Isles,Minn-Southwest,10,Attraction,"(44.948650000000001, -93.30077)"
30044,15,26th Street & Hennepin,2600 Hennepin Ave.,44.9554734,-93.297143,55408,Minneapolis,East Isles,Minn-Southwest,10,Attraction,"(44.955473400000002, -93.297143000000005)"
30045,19,Franklin & 28th Ave,2823 East Franklin Ave.,44.962701,-93.230893,55406,Minneapolis,Seward,Minn-South,2,Minneapolis,"(44.962701000000003, -93.230893000000009)"
30046,19,Washington Ave S & 10th Ave S,920 Washington Ave.,44.97654,-93.25535,55415,Minneapolis,Downtown East,Minn-downtown,7,Minneapolis,"(44.97654, -93.255350000000007)"
30047,19,University & Bank Street SE,280 Bank Street SE,44.98717,-93.25576,55414,Minneapolis,Nicollet Island/East Bank,Minn-East,3,Attraction,"(44.987169999999999, -93.255759999999995)"
30048,15,Dupont Ave & 22nd Street,2119 Dupont Ave S.,44.96146,-93.29303,55405,Minneapolis,Lowry Hill East,Minn-Southwest,10,Minneapolis,"(44.961459999999995, -93.293030000000002)"
30049,15,Nicollet Ave & W 37th Street,3700 Nicollet Ave S,44.9353179,-93.2780778,55409,Minneapolis,Lyndale,Minn-Southwest,10,Minneapolis,"(44.935317900000001, -93.278077799999991)"
30050,27,3rd Street S & 2nd Ave. S,275 2nd Ave. S,44.97974,-93.26599,55401,Minneapolis,Downtown West,Minn-Downtown,7,Minneapolis,"(44.97974, -93.265990000000002)"
30051,15,7th Street & 4th Ave. S,690 4th Ave S.,44.97497,-93.266684,55415,Minneapolis,Downtown West,Minn-Downtown,7,Minneapolis,"(44.974969999999999, -93.266683999999998)"
30052,15,Nicollet Mall & Grant Street,1300 Nicollet Ave,44.96995,-93.278133,55403,Minneapolis,Loring Park,Minn-Downtown,7,Attraction,"(44.969949999999997, -93.278132999999997)"
30053,23,2nd Ave N & N 6th Street,516 2nd Ave N,44.980536,-93.275626,55403,Minneapolis,Downtown West,Minn-Downtown,7,Minneapolis,"(44.980536000000001, -93.275626000000003)"
30054,15,Midtown Greenway & 5th Ave S,2848 5th Ave S,44.950371,-93.269278,55407,Minneapolis,Phillips West,Minn-South,6,Attraction,"(44.950371000000004, -93.269278)"
30055,24,Malcolm Ave SE & 5th Street SE,549 Malcolm Ave SE,44.9733714,-93.211264,55414,Minneapolis,Prospect Park/East River Road,Minn-East,2,Attraction,"(44.973371399999998, -93.211264)"
30056,19,Target Field Station,353 N 5th St,44.9841254,-93.2790381,55401,Minneapolis,Downtown West,Minn-Downtown,7,Minneapolis,"(44.984125399999996, -93.279038099999994)"
30057,19,McNamara Center,270 Walnut Street SE,44.9743,-93.22854,55455,Minneapolis,University of MN,Minn-East,2,Minneapolis,"(44.974299999999999, -93.228539999999995)"
30058,15,Elliot Hall,100 East River Parkway,44.97685,-93.23818,55455,Minneapolis,University of MN,Minn-East,2,Minneapolis,"(44.976849999999999, -93.23818)"
30059,15,Glenwood Ave & N Morgan Ave.,361 Morgan Ave N,44.981147,-93.304427,55405,Minneapolis,Harrison,Minn-North,5,Equity,"(44.981147, -93.304427000000004)"
30060,23,Nicollet & Franklin,1925 Nicollet Ave,44.96342,-93.277939,55404,Minneapolis,Stevens Square,Minn-Downtown,6,Minneapolis,"(44.963419999999999, -93.277939000000003)"
30061,19,W 31st Street & Hennepin Ave S,1378 West 31st Street,44.946687,-93.29736,55408,Minneapolis,ECCO,Minn-Southwest,10,Minneapolis,"(44.946686999999997, -93.297359999999998)"
30062,15,Minneapolis Farmers Market,237 Border Ave,44.98052,-93.28542,55405,Minneapolis,Harrison,Minn-North,7,Attraction,"(44.980519999999999, -93.285420000000002)"
30063,15,Elliot Park,805 Elliot Ave S.,44.970553,-93.26079,55404,Minneapolis,Elliot Park,Minn-Downtown,7,Equity,"(44.970553000000002, -93.26079)"
30064,15,28th Street & Nicollet Ave. S,15 West 28th Street,44.9519,-93.27831,55408,Minneapolis,Whittier,Minn-Southwest,6,Equity,"(44.951900000000002, -93.278310000000005)"
30065,15,Washington Ave N & 9th Ave N,851 N Washington Ave,44.9898791,-93.2797837,55401,Minneapolis,North Loop,Minn-Downtown,7,Minneapolis,"(44.989879100000003, -93.27978370000001)"
30066,11,Wirth Beach,3450 Glenwood Ave,44.9798,-93.322066,55411,Minneapolis,Harrison,Minn-North,5,Attraction,"(44.979799999999997, -93.322066000000007)"
30067,15,Bryant Ave. N & West Broadway,2020 Bryant Ave. N,44.999341,-93.290941,55411,Minneapolis,Hawthorne,Minn-North,3,Equity,"(44.999340999999994, -93.290941000000004)"
30068,15,Girard Ave N & W Broadway Ave,2002 Girard Ave N,44.99957,-93.297071,55411,Minneapolis,Near North,Minn-North,5,Equity,"(44.999569999999999, -93.297071000000003)"
30069,15,Farview Park,680 26th Ave. N,45.005994,-93.287559,55411,Minneapolis,Hawthorne,Minn-North,3,Equity,"(45.005994000000001, -93.287559000000002)"
30070,15,West Broadway & Logan Ave N,2040 West Broadway Ave.,45.002448,-93.305857,55411,Minneapolis,Jordan,Minn-North,5,Equity,"(45.002448000000001, -93.305856999999989)"
30071,15,7th Street N & Plymouth Ave N,1280 N 7th St,44.991704,-93.293988,55411,Minneapolis,Jordan,Minn-North,5,Equity,"(44.991703999999999, -93.293987999999999)"
30072,15,36th Ave N & Irving Ave N,3598 North Irving Avenue,45.0202715,-93.299329,55412,Minneapolis,Folwell,Minn-North,4,Equity,"(45.0202715, -93.299329)"
30073,19,West 34th Street & Hennepin Ave S,3348 Hennepin Ave,44.941388,-93.298634,55408,Minneapolis,ECCO,Minn-Southwest,10,Minneapolis,"(44.941388000000003, -93.298633999999993)"
30074,15,27th Ave SE & University Ave.,315 27th Ave SE,44.97259,-93.218919,55414,Minneapolis,Prospect Park/East River Road,Minn-East,2,Minneapolis,"(44.972590000000004, -93.218919)"
30080,15,Midtown YWCA,2121 East Lake St.,44.94823,-93.24054,55407,Minneapolis,East Phillips,Minn-Southwest,9,Minneapolis,"(44.948230000000002, -93.240539999999996)"
30081,15,East Lake Street & 36th Ave S,3521 East Lake Street,44.94826,-93.22106,55406,Minneapolis,Longfellow,Minn-Southwest,9,Minneapolis,"(44.948259999999998, -93.221059999999994)"
30084,15,Hennepin Ave & N 5th Street,500 Hennepin Ave,44.97955,-93.272883,55403,Minneapolis,Downtown,Downtown West,7,Minneapolis,"(44.979550000000003, -93.272882999999993)"
30087,15,Grant Street & Portland Ave,608 E Grant Street,44.96954,-93.2669,55404,Minneapolis,Elliot Park,Minn-Downtown,7,Minneapolis,"(44.969540000000002, -93.266900000000007)"
30088,27,6th Ave. SE & University Ave.,288 6th Ave SE,44.983281,-93.24812,55414,Minneapolis,Marcy-Holmes,Minn-East,3,Minneapolis,"(44.983280999999998, -93.24812)"
30089,27,Lake Calhoun Center,3033 Excelsior Boulevard,44.9484672,-93.3172944,55416,Minneapolis,West Calhoun,Minn-Southwest,13,Attraction,"(44.948467200000003, -93.317294400000009)"
30090,19,Portland Ave. & Washington Ave.,244 Portland Ave S,44.978068,-93.26023,55415,Minneapolis,Downtown East,Minn-Downtown,7,Minneapolis,"(44.978068, -93.260230000000007)"
30091,19,Gateway Park,201 Hennepin Ave.,44.9825943,-93.2675139,55401,Minneapolis,Downtown West,Minn-Downtown,7,Minneapolis,"(44.982594299999995, -93.267513900000012)"
30092,19,2nd Street N & 8th Ave N,715 North 2nd St,44.989166,-93.27651,55401,Minneapolis,North Loop,Minn-Downtown,7,Minneapolis,"(44.989165999999997, -93.276510000000002)"
30093,23,West 15th Street & Willow,1470 Willow Street,44.968237,-93.281991,55403,Minneapolis,Loring Park,Minn-Downtown,7,Minneapolis,"(44.968237000000002, -93.281991000000005)"
30094,15,West 32nd Street & Bryant Ave S,818 32nd St W,44.94478,-93.29038,55408,Minneapolis,CARAG,Minn-Southwest,10,Minneapolis,"(44.944780000000002, -93.290379999999999)"
30095,15,West 36th Street & Bryant Ave S,904 W 36th Street,44.93775,-93.2912,55409,Minneapolis,Lyndale,Minn-Southwest,10,Minneapolis,"(44.937750000000001, -93.291200000000003)"
30096,15,University Ave. NE & 12th Ave. NE,1212 University Ave NE,44.999894,-93.26296,55413,Minneapolis,Sheridan,Minn-East,3,Minneapolis,"(44.999893999999998, -93.262959999999993)"
30097,15,Pleasant Ave S & Lake Street,2948 Pleasant Ave S,44.948556,-93.283163,55408,Minneapolis,Whittier,Minn-Southwest,6,Equity,"(44.948555999999996, -93.283163000000002)"
30098,15,Marshall Street NE & 8th Ave. NE,801 Marshall St NE,44.995348,-93.266854,55413,Minneapolis,Sheridan,Minn-East,3,Minneapolis,"(44.995348, -93.266854000000009)"
30104,15,Logan Park,680 Broadway St. NE,44.99882,-93.25276,55413,Minneapolis,Logan Park,Minn-East,1,Equity,"(44.998820000000002, -93.252759999999995)"
30108,15,Elliot Ave S & 24th Street E,912 E 24th Street,44.9593738,-93.2610163,55414,Minneapolis,Ventura Village,Minn-South,6,Equity,"(44.959373799999995, -93.261016299999994)"
30109,15,Como Ave. SE & 29th Ave. SE,2820 Como Ave. SE,44.987934,-93.212892,55414,Minneapolis,Como,Minn-East,2,Minneapolis,"(44.987934000000003, -93.212892000000011)"
30110,15,15th Ave. SE & Como Ave. SE,901 15th Ave SE,44.987517,-93.230469,55414,Minneapolis,Como,Minn-East,2,Minneapolis,"(44.987516999999997, -93.230468999999999)"
30112,15,Central Ave. NE & 22nd Ave NE,934 22nd Ave. NE,45.00994,-93.247114,55418,Minneapolis,Holland,Minn-East,1,Equity,"(45.00994, -93.247113999999996)"
30114,11,3rd Ave S & E 38th Street,317 E 38th St,44.9338787,-93.2726088,55409,Minneapolis,Central,Minn-South,8,Equity,"(44.933878700000001, -93.2726088)"
30115,27,Washington Ave SE & Union Street SE,110 Union St SE,44.97394,-93.2321,55455,Minneapolis,University of MN,Minn-East,2,Minneapolis,"(44.973939999999999, -93.232100000000003)"
30142,25,9th Street N & Hawthorne Ave,900 Hawthorne Avenue,44.977128,-93.277505,55403,Minneapolis,Downtown West,Minn-South,7,Minneapolis,"(44.977128, -93.277505000000005)"
30143,19,Chicago Ave & Washington Ave S,201 Chicago Avenue South,44.977521,-93.256736,55415,Minneapolis,Downtown East,Minn-Downtown,7,Minneapolis,"(44.977521000000003, -93.256736000000004)"
30144,15,N 4th Ave & W River Parkway,10 North 4th Avenue,44.988461,-93.269087,55401,Minneapolis,North Loop,Minn-Downtown,7,Attraction,"(44.988461000000001, -93.269086999999999)"
30145,15,Minneapolis Park & Recreation Board,2117 West River Road North,45.00095,-93.277037,55411,Minneapolis,Hawthorne,Minn-North,3,Minneapolis,"(45.000950000000003, -93.277036999999993)"
30146,15,North Mississippi Regional Park,4900 N Mississippi Dr,45.042435,-93.283734,55430,Minneapolis,Webber-Camden,Minn-North,4,Attraction,"(45.042434999999998, -93.283733999999995)"
30147,15,Lake Street & West River Parkway,4722 E Lake Street,44.948452,-93.206201,55406,Minneapolis,Cooper,Minn-South,2,Attraction,"(44.948452000000003, -93.206201000000007)"
30148,15,46th Street Light Rail Station,4522 Hiawatha Ave,44.920466,-93.21953,55406,Minneapolis,Ericsson,Minn-South,12,Minneapolis,"(44.920465999999998, -93.219530000000006)"
30149,27,Minnehaha Park,4802 Minnehaha Ave,44.916906,-93.213587,55417,Minneapolis,Hiawatha,Minn-South,12,Attraction,"(44.916905999999997, -93.213587000000004)"
30151,15,Boom Island Park,724 Sibley St. NE,44.99254,-93.270256,55413,Minneapolis,St. Anthony West,Minn-East,3,Attraction,"(44.992540000000005, -93.270256000000003)"
30152,15,Broadway & Marshall Street NE,81 Broadway Street Northeast,44.998613,-93.268633,55413,Minneapolis,St. Anthony West,Minn-East,3,Minneapolis,"(44.998612999999999, -93.268632999999994)"
30153,15,Coldwater Spring,5407 Minnehaha Park Drive South,44.905043,-93.198283,55417,Minneapolis,Minnehaha,Minn-South,12,Attraction,"(44.905042999999999, -93.198282999999989)"
30154,23,11th Ave S & S 2nd Street,11th Ave S & S 2nd Street,44.97673,-93.252189,55415,Minneapolis,Downtown East,Minn-Downtown,7,Minneapolis,"(44.976729999999996, -93.252189000000001)"
30156,23,Lake Nokomis,2025 East Minnehaha Parkway,44.915957,-93.242761,55417,Minneapolis,Keewaydin,Minn-South,12,Attraction,"(44.915956999999999, -93.242761000000002)"
30157,25,Lake Harriet Bandshell,4692 East Lake Harriet Boulevard,44.92936,-93.30713,55419,Minneapolis,East Harriet,Minn-Southwest,13,Attraction,"(44.929359999999996, -93.307130000000001)"
30158,33,Lake Street & Knox Ave S,1873 W Lake Street,44.9485,-93.305209,55408,Minneapolis,Cedar-Isles-Dean,Minn-Southwest,10,Attraction,"(44.948500000000003, -93.305208999999991)"
30160,15,Dupont Ave S & W 29th Street,2945 Dupont Avenue South,44.949699,-93.293129,55408,Minneapolis,Lowry Hill East,Minn-Southwest,10,Minneapolis,"(44.949699000000003, -93.293129000000008)"
30161,15,27th Ave S & East Lake Street,3082 27th Avenue South,44.947329,-93.233092,55406,Minneapolis,Longfellow,Minn-South,9,Minneapolis,"(44.947328999999996, -93.233091999999999)"
30163,15,38th Street Light Rail Station,2999 East 38th Street,44.93434,-93.229338,55406,Minneapolis,Standish,Minn-South,9,Minneapolis,"(44.934339999999999, -93.229337999999998)"
30165,15,Upton Ave S & Sheridan Ave S,4251 Upton Ave S,44.92515,-93.314597,55410,Minneapolis,Linden Hills,Minn-Southwest,13,Minneapolis,"(44.925150000000002, -93.314596999999992)"
30166,19,W 36th Street & W Calhoun Parkway,3187 W 36th St,44.937817,-93.320212,55416,Minneapolis,West Calhoun,Minn-Southwest,13,Attraction,"(44.937816999999995, -93.320211999999998)"
30167,15,E 38th Street & 42nd Ave S,Riverview Theater,44.9342,-93.2125,55402,Minneapolis,Downtown West,Minn-South,7,Minneapolis,"(44.934199999999997, -93.212500000000006)"
30168,15,Marshall Street NE & Lowry Ave,2435 Marshall Street Northeast,45.01312,-93.27166,55418,Minneapolis,Bottineau,Minn-East,3,Minneapolis,"(45.013120000000001, -93.271659999999997)"
30169,15,Marshall Street NE & 18th Ave NE,1893 Marshall Street Northeast,45.006229,-93.271571,55418,Minneapolis,Bottineau,Minn-East,3,Equity,"(45.006228999999998, -93.271570999999994)"
30170,15,Nicollet Island,38 W Island Ave,44.985388,-93.26145,55401,Minneapolis,Nicollet Island/East Bank,Minn-East,3,Attraction,"(44.985388, -93.261449999999996)"
30171,15,SE 3rd Ave & University Ave SE,278 3rd Ave SE,44.985465,-93.252102,55414,Minneapolis,Marcy-Holmes,Minn-East,3,Minneapolis,"(44.985465000000005, -93.252102000000008)"
30172,15,2nd Street SE & 5th Ave SE,514 2nd St SE,44.983321,-93.249653,55414,Minneapolis,Marcy-Holmes,Minn-East,3,Minneapolis,"(44.983321000000004, -93.249653000000009)"
30173,15,22nd Ave NE & California Street NE,85 22nd Ave NE,45.010119,-93.268598,55418,Minneapolis,Bottineau,Minn-East,3,Minneapolis,"(45.010119000000003, -93.268597999999997)"
30174,15,Hiawatha Ave & E 50th Street,5010 Hiawatha Avenue,44.9129425,-93.2101402,55417,Minneapolis,Minnehaha,Minn-South,12,Minneapolis,"(44.9129425, -93.210140199999998)"
30175,15,18th Ave Trail & 2nd Street NE,1700 2nd St NE,45.006321,-93.266553,55418,Minneapolis,Sheridan,Minn-East,3,Equity,"(45.006321, -93.266553000000002)"
30176,19,Washington Ave N & Cedar Lake Trail,347 N Washington Ave,44.985406,-93.274031,55401,Minneapolis,North Loop,Minn-Downtown,3,Minneapolis,"(44.985405999999998, -93.274031000000008)"
30177,11,3rd Street NE & Lowry Ave NE,2455 3rd Street NE,45.01304,-93.264573,55418,Minneapolis,Bottineau,Minn-East,1,Equity,"(45.013040000000004, -93.264572999999999)"
30178,15,5th Street NE & 1st Ave NE,105 5th Street NE,44.990328,-93.254295,55413,Minneapolis,Nicollet Island/East Bank,Minn-East,3,Minneapolis,"(44.990328000000005, -93.254294999999999)"
30179,23,Portland Ave & 4th Street S,Portland Ave & 4th Street S,44.976134,-93.261632,55401,Minneapolis,Downtown East,Minn-Downtown,3,Minneapolis,"(44.976134000000002, -93.261631999999992)"
30180,19,N 3rd Street & 8th Ave N,801 N 3rd St,44.987996,-93.279854,55401,Minneapolis,North Loop,Minn-Downtown,3,Minneapolis,"(44.987996000000003, -93.279854)"
30181,19,5th Ave N & 4th Street N,372 N 5th Ave,44.98446,-93.277234,55401,Minneapolis,North Loop,Minn-Downtown,3,Minneapolis,"(44.984459999999999, -93.277233999999993)"
30182,23,Sanford Hall,1122 University Ave SE,44.980831,-93.240282,55414,Minneapolis,University of MN,Minn-East,3,Minneapolis,"(44.980831000000002, -93.240281999999993)"
30183,19,Weisman Art Museum,221 Washington Ave SE,44.973607,-93.237254,55455,Minneapolis,University of MN,Minn-East,2,Minneapolis,"(44.973607000000001, -93.237254000000007)"
30184,23,Hennepin Ave & S Washington Ave,233 Hennepin Ave,44.981895,-93.269195,55401,Minneapolis,Central,Minn-Downtown,7,Minneapolis,"(44.981895000000002, -93.269194999999996)"
30185,15,5th Street NE & 3rd Ave NE,230 5th Street NE,44.991821,-93.255558,55413,Minneapolis,St. Anthony West,Minn-East,3,Minneapolis,"(44.991821000000002, -93.255557999999994)"
30186,19,5th Street S & Nicollet Mall,41 5th Street S,44.9786652,-93.2705033,55403,Minneapolis,Central,Minn-Downtown,7,Minneapolis,"(44.978665200000002, -93.270503299999987)"
30187,19,Groveland Ave & Clifton Place,451 Groveland Ave,44.966145,-93.286294,55403,Minneapolis,Loring Park,Minn-Downtown,7,Minneapolis,"(44.966145000000004, -93.286293999999998)"
30188,19,8th Street S & 2nd Ave S,121 S 8th Street,44.974795,-93.270649,55402,Minneapolis,Central,Minn-Downtown,7,Minneapolis,"(44.974795, -93.270649000000006)"
30189,19,Delaware Street SE & 26th Ave SE,2529 Delaware St SE,44.972128,-93.221021,55414,Minneapolis,Prospect Park/East River Road,Minn-East,2,Minneapolis,"(44.972128000000005, -93.221020999999993)"
30190,15,7th Street SE & 10th Ave SE,"700 10th Ave SE,",44.985576,-93.238743,55414,Minneapolis,Marcy-Holmes,Minn-East,2,Minneapolis,"(44.985576000000002, -93.238742999999999)"
30191,15,University Ave SE & Bedford Street SE,3326 University Ave SE,44.96876,-93.21003,55414,Minneapolis,Prospect Park/East River Road,Minn-East,2,Minneapolis,"(44.968759999999996, -93.210030000000003)"
30192,15,Cooke Hall,1900 University Ave SE,44.976303,-93.230029,55414,Minneapolis,University of MN,Minn-East,2,Minneapolis,"(44.976303000000001, -93.230029000000002)"
30193,25,Mariucci Arena,37 SE Oak Street,44.977899,-93.226629,55414,Minneapolis,University of MN,Minn-East,2,Minneapolis,"(44.977899000000001, -93.226629000000003)"
30194,23,23rd Ave SE & University Ave SE,2315 University Ave SE,44.974397,-93.223002,55414,Minneapolis,University of MN,Minn-East,2,Minneapolis,"(44.974396999999996, -93.223002000000008)"
30195,23,Willey Hall,225 19th Avenue S,44.972404,-93.242891,55414,Minneapolis,University of MN,Minn-East,2,Minneapolis,"(44.972403999999997, -93.242891)"
30196,23,Civil Engineering,500 Pillsbury Dr SE,44.976096,-93.231958,55414,Minneapolis,University of MN,Minn-East,2,Minneapolis,"(44.976096000000005, -93.231957999999992)"
30197,23,15th Ave SE & 4th Street SE,319 15th Avenue Se,44.979876,-93.234739,55414,Minneapolis,University of MN,Minn-East,2,Minneapolis,"(44.979876000000004, -93.234739000000005)"
30198,15,Bohemian Flats,2150 W River Pkwy,44.976223,-93.2416,55414,Minneapolis,University of MN,Minn-East,2,Minneapolis,"(44.976222999999997, -93.241600000000005)"
